<?xml version="1.0" encoding="UTF-8"?>
<!-- Created with BasicAirData GPS Logger for Android - ver. 3.2.3 -->
<!-- Track 5 = 799 TrackPoints + 15 Placemarks -->
<kml xmlns="http://www.opengis.net/kml/2.2">
 <Document>
  <name>GPS Logger 20260410-143130</name>
  <description><![CDATA[Track 3
799 Trackpoints + 15 Placemarks]]></description>
  <Style id="TrackStyle">
   <LineStyle>
    <color>ff0000ff</color>
    <width>3</width>
   </LineStyle>
   <PolyStyle>
    <color>7f0000ff</color>
   </PolyStyle>
   <BalloonStyle>
    <text><![CDATA[<p style="color:red;font-weight:bold">$[name]</p><p style="font-size:11px">$[description]</p><p style="font-size:7px">Track Stats based on: Total time | Time in Movement</p>]]></text>
   </BalloonStyle>
  </Style>
  <Style id="PlacemarkStyle">
   <IconStyle>
    <Icon><href>http://maps.google.com/mapfiles/kml/shapes/placemark_circle_highlight.png</href></Icon>
   </IconStyle>
  </Style>

  <Placemark id="1">
   <name>Stop</name>
   <styleUrl>#PlacemarkStyle</styleUrl>
   <Point>
    <altitudeMode>clampToGround</altitudeMode>
    <coordinates>34.99785885,31.71289645,424.000</coordinates>
    <extrude>1</extrude>
   </Point>
  </Placemark>

  <Placemark id="2">
   <name>Stop No Passangers</name>
   <styleUrl>#PlacemarkStyle</styleUrl>
   <Point>
    <altitudeMode>clampToGround</altitudeMode>
    <coordinates>34.99814761,31.70940409,416.000</coordinates>
    <extrude>1</extrude>
   </Point>
  </Placemark>

  <Placemark id="3">
   <name>Stop No Passangers</name>
   <styleUrl>#PlacemarkStyle</styleUrl>
   <Point>
    <altitudeMode>clampToGround</altitudeMode>
    <coordinates>34.99590838,31.71094565,413.000</coordinates>
    <extrude>1</extrude>
   </Point>
  </Placemark>

  <Placemark id="4">
   <name>Stop No Passangers</name>
   <styleUrl>#PlacemarkStyle</styleUrl>
   <Point>
    <altitudeMode>clampToGround</altitudeMode>
    <coordinates>34.99606127,31.70829806,379.000</coordinates>
    <extrude>1</extrude>
   </Point>
  </Placemark>

  <Placemark id="5">
   <name>Stop No Passangers</name>
   <styleUrl>#PlacemarkStyle</styleUrl>
   <Point>
    <altitudeMode>clampToGround</altitudeMode>
    <coordinates>35.00226832,31.71134295,411.000</coordinates>
    <extrude>1</extrude>
   </Point>
  </Placemark>

  <Placemark id="6">
   <name>Stop</name>
   <styleUrl>#PlacemarkStyle</styleUrl>
   <Point>
    <altitudeMode>clampToGround</altitudeMode>
    <coordinates>35.00292052,31.71262756,387.000</coordinates>
    <extrude>1</extrude>
   </Point>
  </Placemark>

  <Placemark id="7">
   <name>Stop No Passangers</name>
   <styleUrl>#PlacemarkStyle</styleUrl>
   <Point>
    <altitudeMode>clampToGround</altitudeMode>
    <coordinates>35.00270703,31.71098416,382.000</coordinates>
    <extrude>1</extrude>
   </Point>
  </Placemark>

  <Placemark id="8">
   <name>Stop</name>
   <styleUrl>#PlacemarkStyle</styleUrl>
   <Point>
    <altitudeMode>clampToGround</altitudeMode>
    <coordinates>35.00457779,31.70591131,373.000</coordinates>
    <extrude>1</extrude>
   </Point>
  </Placemark>

  <Placemark id="9">
   <name>Stop No Passangers</name>
   <styleUrl>#PlacemarkStyle</styleUrl>
   <Point>
    <altitudeMode>clampToGround</altitudeMode>
    <coordinates>35.00430169,31.70428970,394.000</coordinates>
    <extrude>1</extrude>
   </Point>
  </Placemark>

  <Placemark id="10">
   <name>Stop No Passangers</name>
   <styleUrl>#PlacemarkStyle</styleUrl>
   <Point>
    <altitudeMode>clampToGround</altitudeMode>
    <coordinates>35.00565712,31.70297965,401.000</coordinates>
    <extrude>1</extrude>
   </Point>
  </Placemark>

  <Placemark id="11">
   <name>Stop No Passangers</name>
   <styleUrl>#PlacemarkStyle</styleUrl>
   <Point>
    <altitudeMode>clampToGround</altitudeMode>
    <coordinates>35.00322302,31.70261119,423.000</coordinates>
    <extrude>1</extrude>
   </Point>
  </Placemark>

  <Placemark id="12">
   <name>Stop No Passangers</name>
   <styleUrl>#PlacemarkStyle</styleUrl>
   <Point>
    <altitudeMode>clampToGround</altitudeMode>
    <coordinates>35.00171989,31.70499290,421.000</coordinates>
    <extrude>1</extrude>
   </Point>
  </Placemark>

  <Placemark id="13">
   <name>Stop No Passangers</name>
   <styleUrl>#PlacemarkStyle</styleUrl>
   <Point>
    <altitudeMode>clampToGround</altitudeMode>
    <coordinates>35.00096586,31.70340617,414.000</coordinates>
    <extrude>1</extrude>
   </Point>
  </Placemark>

  <Placemark id="14">
   <name>Stop No Passangers</name>
   <styleUrl>#PlacemarkStyle</styleUrl>
   <Point>
    <altitudeMode>clampToGround</altitudeMode>
    <coordinates>35.00278599,31.70182165,409.000</coordinates>
    <extrude>1</extrude>
   </Point>
  </Placemark>

  <Placemark id="15">
   <name>Stop No Passangers</name>
   <styleUrl>#PlacemarkStyle</styleUrl>
   <Point>
    <altitudeMode>clampToGround</altitudeMode>
    <coordinates>35.00410245,31.69997219,419.000</coordinates>
    <extrude>1</extrude>
   </Point>
  </Placemark>

  <Placemark id="20260410-143130">
   <name>Track 20260410-143130</name>
   <description><![CDATA[<b>Track 3</b><br><br>Distance = 6.78 km<br>Duration = 13:30 | 13:22<br>Altitude Gap = -15 m<br>Max Speed = 56 km/h<br>Avg Speed = 30.1 | 30.5 km/h<br>Direction = SSE <br><br><i>799 Trackpoints</i>]]></description>
   <styleUrl>#TrackStyle</styleUrl>
   <LineString>
    <extrude>0</extrude>
    <tessellate>0</tessellate>
    <altitudeMode>clampToGround</altitudeMode>
    <coordinates>
     34.99785885,31.71289645,424.000
     34.99789397,31.71291376,432.000
     34.99784259,31.71286623,411.000
     34.99783320,31.71287453,410.000
     34.99781946,31.71287923,411.000
     34.99781594,31.71288677,413.000
     34.99782893,31.71287805,415.000
     34.99784335,31.71288141,417.000
     34.99786430,31.71288455,419.000
     34.99790135,31.71289708,420.000
     34.99794871,31.71291301,421.000
     34.99801786,31.71292562,422.000
     34.99806169,31.71291695,421.000
     34.99811400,31.71289842,421.000
     34.99816605,31.71287638,421.000
     34.99817418,31.71281578,421.000
     34.99817150,31.71275413,422.000
     34.99816907,31.71269658,424.000
     34.99814166,31.71263766,426.000
     34.99812213,31.71258251,429.000
     34.99808332,31.71252086,429.000
     34.99804200,31.71243930,430.000
     34.99800042,31.71235557,430.000
     34.99794242,31.71227087,429.000
     34.99788735,31.71218826,428.000
     34.99783228,31.71210491,429.000
     34.99777453,31.71200357,429.000
     34.99772415,31.71190361,428.000
     34.99768577,31.71179859,427.000
     34.99765643,31.71169998,427.000
     34.99763162,31.71159022,427.000
     34.99761921,31.71148536,426.000
     34.99760396,31.71138553,426.000
     34.99761251,31.71127837,425.000
     34.99763430,31.71117112,425.000
     34.99765861,31.71106895,424.000
     34.99768124,31.71096107,422.000
     34.99771351,31.71087679,421.000
     34.99774159,31.71080621,419.000
     34.99777487,31.71075035,419.000
     34.99781108,31.71069704,420.000
     34.99784737,31.71065387,420.000
     34.99788827,31.71060388,421.000
     34.99795315,31.71055132,421.000
     34.99801610,31.71050095,422.000
     34.99807091,31.71045874,422.000
     34.99810788,31.71041905,421.000
     34.99810930,31.71038716,422.000
     34.99810763,31.71036583,422.000
     34.99809572,31.71035242,422.000
     34.99807360,31.71031835,422.000
     34.99805524,31.71026889,422.000
     34.99804543,31.71021407,422.000
     34.99804585,31.71015025,422.000
     34.99805164,31.71008508,421.000
     34.99806270,31.71003009,421.000
     34.99808349,31.70997523,420.000
     34.99812406,31.70992188,419.000
     34.99818164,31.70986266,418.000
     34.99826060,31.70979661,417.000
     34.99833344,31.70974163,417.000
     34.99841399,31.70969503,417.000
     34.99849395,31.70964733,418.000
     34.99857291,31.70959025,418.000
     34.99863577,31.70953556,417.000
     34.99868916,31.70947672,418.000
     34.99872336,31.70941750,418.000
     34.99873434,31.70935870,418.000
     34.99870635,31.70929894,418.000
     34.99865807,31.70925577,417.000
     34.99860090,31.70923515,418.000
     34.99854223,31.70923427,418.000
     34.99848523,31.70924978,418.000
     34.99841751,31.70928041,417.000
     34.99834048,31.70931553,417.000
     34.99825280,31.70935862,416.000
     34.99814761,31.70940409,416.000
     34.99803403,31.70945493,415.000
     34.99792130,31.70950891,414.000
     34.99781870,31.70955991,413.000
     34.99772692,31.70961108,413.000
     34.99764821,31.70966125,412.000
     34.99757789,31.70970881,413.000
     34.99751343,31.70974917,413.000
     34.99745384,31.70979708,414.000
     34.99740229,31.70984996,413.000
     34.99735091,31.70990197,413.000
     34.99729902,31.70995583,413.000
     34.99724035,31.71001693,414.000
     34.99718210,31.71007783,415.000
     34.99712979,31.71015955,414.000
     34.99708529,31.71026173,414.000
     34.99703265,31.71036101,414.000
     34.99697037,31.71045975,414.000
     34.99692268,31.71055962,413.000
     34.99687524,31.71065664,413.000
     34.99683131,31.71075689,412.000
     34.99680106,31.71084557,412.000
     34.99676887,31.71093517,412.000
     34.99675420,31.71101735,412.000
     34.99673786,31.71108701,413.000
     34.99673693,31.71114136,414.000
     34.99673744,31.71119015,414.000
     34.99672696,31.71122849,415.000
     34.99670089,31.71125301,415.000
     34.99665672,31.71126211,416.000
     34.99661590,31.71126060,416.000
     34.99658103,31.71123290,416.000
     34.99652814,31.71120838,417.000
     34.99648749,31.71118030,417.000
     34.99643401,31.71115913,416.000
     34.99639529,31.71113307,415.000
     34.99632915,31.71110922,415.000
     34.99623377,31.71108500,415.000
     34.99612338,31.71104363,414.000
     34.99601668,31.71099074,413.000
     34.99590838,31.71094565,413.000
     34.99580470,31.71091602,412.000
     34.99572239,31.71088551,412.000
     34.99564796,31.71085940,412.000
     34.99557721,31.71083962,411.000
     34.99550052,31.71081766,411.000
     34.99541301,31.71079046,409.000
     34.99530631,31.71077378,408.000
     34.99518989,31.71074121,407.000
     34.99507279,31.71070634,406.000
     34.99496005,31.71067747,405.000
     34.99486266,31.71064796,404.000
     34.99477104,31.71061838,404.000
     34.99469209,31.71058284,403.000
     34.99463224,31.71055065,403.000
     34.99456292,31.71051771,403.000
     34.99449939,31.71047525,402.000
     34.99442630,31.71042371,402.000
     34.99435622,31.71036390,402.000
     34.99430199,31.71030527,401.000
     34.99426310,31.71024844,401.000
     34.99421775,31.71018679,400.000
     34.99417819,31.71012321,399.000
     34.99414123,31.71005344,399.000
     34.99411792,31.70996631,398.000
     34.99409177,31.70988236,398.000
     34.99408004,31.70979381,399.000
     34.99408063,31.70970760,398.000
     34.99408976,31.70961963,399.000
     34.99411851,31.70953313,399.000
     34.99415581,31.70945765,398.000
     34.99419521,31.70938925,397.000
     34.99424634,31.70933913,395.000
     34.99431389,31.70930154,395.000
     34.99436201,31.70925686,394.000
     34.99440526,31.70922006,393.000
     34.99445186,31.70917681,393.000
     34.99449788,31.70913574,392.000
     34.99456485,31.70909698,392.000
     34.99464657,31.70907271,391.000
     34.99472008,31.70905863,391.000
     34.99480164,31.70904966,390.000
     34.99487607,31.70903763,390.000
     34.99495008,31.70902489,389.000
     34.99503197,31.70900763,389.000
     34.99512518,31.70898877,388.000
     34.99522895,31.70896492,388.000
     34.99532802,31.70893370,388.000
     34.99542500,31.70889313,388.000
     34.99549381,31.70883492,389.000
     34.99553874,31.70877729,388.000
     34.99555886,31.70870584,387.000
     34.99555282,31.70864117,386.000
     34.99554377,31.70858585,385.000
     34.99551879,31.70854587,384.000
     34.99546917,31.70850702,384.000
     34.99542785,31.70847177,384.000
     34.99539742,31.70843552,384.000
     34.99539038,31.70839428,383.000
     34.99539876,31.70834914,383.000
     34.99543120,31.70831943,382.000
     34.99546808,31.70830061,382.000
     34.99552751,31.70829378,381.000
     34.99558995,31.70829588,381.000
     34.99564745,31.70831658,381.000
     34.99570118,31.70833703,381.000
     34.99575038,31.70834453,381.000
     34.99581082,31.70834093,381.000
     34.99588173,31.70833326,380.000
     34.99597066,31.70831696,379.000
     34.99606127,31.70829806,379.000
     34.99616261,31.70828175,380.000
     34.99627534,31.70825715,380.000
     34.99638833,31.70823817,381.000
     34.99650836,31.70821683,381.000
     34.99663040,31.70819676,382.000
     34.99675445,31.70816730,382.000
     34.99688613,31.70814429,383.000
     34.99700809,31.70811051,383.000
     34.99714295,31.70807702,383.000
     34.99727472,31.70803939,383.000
     34.99741159,31.70799807,384.000
     34.99754964,31.70795561,385.000
     34.99769180,31.70791039,386.000
     34.99783698,31.70786044,388.000
     34.99798559,31.70781325,388.000
     34.99813512,31.70777611,388.000
     34.99829421,31.70774129,390.000
     34.99844684,31.70770508,391.000
     34.99860501,31.70766405,392.000
     34.99875588,31.70762029,392.000
     34.99891028,31.70757730,392.000
     34.99906518,31.70753333,392.000
     34.99922150,31.70748820,393.000
     34.99937614,31.70744474,394.000
     34.99952442,31.70740957,395.000
     34.99967563,31.70737047,395.000
     34.99982768,31.70732848,397.000
     34.99997537,31.70729017,398.000
     35.00009640,31.70725753,399.000
     35.00020939,31.70721775,399.000
     35.00030662,31.70717513,399.000
     35.00037611,31.70714370,399.000
     35.00043335,31.70711734,399.000
     35.00046973,31.70709236,399.000
     35.00049320,31.70707300,399.000
     35.00049597,31.70707115,399.000
     35.00049379,31.70707296,398.000
     35.00049882,31.70706763,398.000
     35.00051692,31.70705041,398.000
     35.00053762,31.70702728,397.000
     35.00056344,31.70699060,397.000
     35.00058322,31.70695846,397.000
     35.00062304,31.70691869,397.000
     35.00067970,31.70689153,397.000
     35.00073452,31.70687439,397.000
     35.00080559,31.70688365,398.000
     35.00086410,31.70691316,398.000
     35.00090308,31.70696374,398.000
     35.00092126,31.70701952,399.000
     35.00093970,31.70708289,399.000
     35.00095001,31.70714165,400.000
     35.00096770,31.70720472,401.000
     35.00099503,31.70725983,402.000
     35.00104289,31.70732802,403.000
     35.00109510,31.70738380,403.000
     35.00115537,31.70744201,403.000
     35.00120935,31.70747885,404.000
     35.00123860,31.70750446,404.000
     35.00126040,31.70753241,405.000
     35.00145343,31.70773844,408.000
     35.00150942,31.70781375,409.000
     35.00158545,31.70789740,409.000
     35.00165921,31.70798503,408.000
     35.00174604,31.70807979,408.000
     35.00182844,31.70817199,407.000
     35.00191276,31.70827031,407.000
     35.00198593,31.70838824,407.000
     35.00205894,31.70851192,407.000
     35.00210596,31.70864247,407.000
     35.00215081,31.70876824,407.000
     35.00215986,31.70889765,408.000
     35.00216623,31.70902275,409.000
     35.00216631,31.70915645,409.000
     35.00214896,31.70928632,409.000
     35.00213454,31.70940723,410.000
     35.00210370,31.70952517,410.000
     35.00205123,31.70966883,411.000
     35.00195995,31.70977151,412.000
     35.00191427,31.70986526,410.000
     35.00187915,31.70995683,409.000
     35.00183037,31.71005478,409.000
     35.00177354,31.71016320,409.000
     35.00172609,31.71027082,408.000
     35.00169257,31.71037639,408.000
     35.00165745,31.71048858,408.000
     35.00164663,31.71061297,408.000
     35.00163373,31.71072663,409.000
     35.00164756,31.71084121,410.000
     35.00166432,31.71093685,411.000
     35.00168771,31.71101362,414.000
     35.00172257,31.71107749,414.000
     35.00177538,31.71111588,413.000
     35.00183338,31.71115918,414.000
     35.00191192,31.71120771,414.000
     35.00200781,31.71125272,413.000
     35.00210663,31.71127812,412.000
     35.00218241,31.71129932,412.000
     35.00226832,31.71134295,411.000
     35.00234250,31.71139534,412.000
     35.00240293,31.71146553,412.000
     35.00243881,31.71154588,413.000
     35.00246211,31.71163124,413.000
     35.00247301,31.71172491,414.000
     35.00245130,31.71182441,413.000
     35.00243026,31.71191698,412.000
     35.00241777,31.71203374,409.000
     35.00239338,31.71212988,410.000
     35.00239145,31.71224363,409.000
     35.00237770,31.71235175,409.000
     35.00237091,31.71246700,406.000
     35.00234300,31.71258812,405.000
     35.00230503,31.71271389,406.000
     35.00227737,31.71283862,405.000
     35.00225248,31.71296699,403.000
     35.00221912,31.71308471,402.000
     35.00218148,31.71319321,402.000
     35.00216531,31.71329572,402.000
     35.00215139,31.71338310,402.000
     35.00214896,31.71343742,402.000
     35.00216556,31.71349534,401.000
     35.00220076,31.71354605,400.000
     35.00224913,31.71359860,399.000
     35.00229397,31.71362719,398.000
     35.00235516,31.71363335,397.000
     35.00241978,31.71363209,398.000
     35.00249170,31.71362886,397.000
     35.00256898,31.71361885,396.000
     35.00263821,31.71358192,395.000
     35.00269521,31.71354173,395.000
     35.00274986,31.71348356,394.000
     35.00279160,31.71340888,393.000
     35.00282655,31.71332728,393.000
     35.00283720,31.71323441,391.000
     35.00285589,31.71313605,390.000
     35.00286536,31.71304087,389.000
     35.00287559,31.71295978,389.000
     35.00288473,31.71288237,388.000
     35.00290065,31.71280526,388.000
     35.00291021,31.71273891,388.000
     35.00291565,31.71267802,387.000
     35.00292052,31.71262756,387.000
     35.00292647,31.71257459,387.000
     35.00293351,31.71251943,387.000
     35.00294591,31.71245183,386.000
     35.00295237,31.71237568,386.000
     35.00296687,31.71229383,387.000
     35.00298481,31.71220289,386.000
     35.00299755,31.71210880,385.000
     35.00301892,31.71200851,385.000
     35.00304272,31.71191342,384.000
     35.00306116,31.71181690,384.000
     35.00306368,31.71172864,383.000
     35.00306359,31.71164047,383.000
     35.00305362,31.71155195,383.000
     35.00304423,31.71147576,384.000
     35.00302998,31.71141646,384.000
     35.00299511,31.71134844,383.000
     35.00296486,31.71129379,383.000
     35.00292974,31.71123428,382.000
     35.00288766,31.71116714,382.000
     35.00283158,31.71110759,382.000
     35.00277274,31.71104858,382.000
     35.00270703,31.71098416,382.000
     35.00264232,31.71091442,382.000
     35.00258549,31.71084423,381.000
     35.00252355,31.71076041,380.000
     35.00247619,31.71066309,380.000
     35.00243931,31.71056649,380.000
     35.00242925,31.71047282,381.000
     35.00244099,31.71037333,382.000
     35.00246253,31.71028059,381.000
     35.00248449,31.71020708,382.000
     35.00249899,31.71013034,382.000
     35.00251341,31.71006802,382.000
     35.00251768,31.71001425,383.000
     35.00251978,31.70996895,382.000
     35.00254241,31.70991505,382.000
     35.00257258,31.70986203,382.000
     35.00260351,31.70982515,381.000
     35.00263218,31.70978492,380.000
     35.00268079,31.70973320,381.000
     35.00272036,31.70967357,382.000
     35.00276042,31.70960496,382.000
     35.00279889,31.70953137,383.000
     35.00283024,31.70944508,383.000
     35.00285472,31.70934936,383.000
     35.00287358,31.70925925,383.000
     35.00288196,31.70916198,384.000
     35.00288581,31.70905880,384.000
     35.00288229,31.70895532,384.000
     35.00287048,31.70885227,384.000
     35.00285220,31.70876388,385.000
     35.00283460,31.70868446,385.000
     35.00281390,31.70861053,384.000
     35.00279034,31.70854557,384.000
     35.00276612,31.70848204,384.000
     35.00273544,31.70842906,384.000
     35.00270032,31.70837043,383.000
     35.00266068,31.70830258,383.000
     35.00261818,31.70821843,382.000
     35.00257904,31.70813147,382.000
     35.00254568,31.70804438,381.000
     35.00251701,31.70796643,381.000
     35.00249295,31.70789966,381.000
     35.00247569,31.70784221,380.000
     35.00246446,31.70778965,380.000
     35.00245758,31.70773135,380.000
     35.00243931,31.70766116,380.000
     35.00242925,31.70756979,380.000
     35.00242758,31.70747508,379.000
     35.00243034,31.70737906,379.000
     35.00244644,31.70727777,378.000
     35.00247083,31.70717337,378.000
     35.00250913,31.70706064,378.000
     35.00254450,31.70695356,379.000
     35.00258775,31.70686110,379.000
     35.00263352,31.70678043,380.000
     35.00268909,31.70670612,379.000
     35.00273234,31.70662939,379.000
     35.00278666,31.70656032,379.000
     35.00284005,31.70649444,379.000
     35.00290358,31.70642944,379.000
     35.00296687,31.70637684,378.000
     35.00302319,31.70633531,378.000
     35.00306938,31.70629868,378.000
     35.00310617,31.70627638,378.000
     35.00315454,31.70624864,378.000
     35.00321640,31.70621331,378.000
     35.00328119,31.70616859,376.000
     35.00336367,31.70612924,376.000
     35.00345453,31.70609320,375.000
     35.00354966,31.70605606,375.000
     35.00363566,31.70603243,375.000
     35.00372501,31.70600975,375.000
     35.00379927,31.70598867,374.000
     35.00386373,31.70596529,374.000
     35.00391947,31.70595343,374.000
     35.00397923,31.70595066,373.000
     35.00404092,31.70594840,373.000
     35.00411066,31.70594651,374.000
     35.00420487,31.70594370,374.000
     35.00429909,31.70593339,374.000
     35.00437955,31.70592049,373.000
     35.00444736,31.70591982,373.000
     35.00451467,31.70591843,374.000
     35.00457779,31.70591131,373.000
     35.00465130,31.70589928,374.000
     35.00473243,31.70588952,374.000
     35.00482648,31.70589090,375.000
     35.00490560,31.70588817,375.000
     35.00497509,31.70588830,375.000
     35.00502228,31.70587828,376.000
     35.00506452,31.70586508,376.000
     35.00510735,31.70585364,376.000
     35.00516125,31.70583449,377.000
     35.00522529,31.70581282,377.000
     35.00528698,31.70578151,377.000
     35.00534247,31.70574258,377.000
     35.00539418,31.70570222,377.000
     35.00544062,31.70565361,377.000
     35.00547708,31.70559426,378.000
     35.00550994,31.70552976,378.000
     35.00553550,31.70547101,379.000
     35.00556082,31.70541414,379.000
     35.00557590,31.70536556,380.000
     35.00558169,31.70533170,382.000
     35.00557037,31.70530442,382.000
     35.00555009,31.70527013,382.000
     35.00550700,31.70523585,383.000
     35.00544439,31.70522206,383.000
     35.00538002,31.70520928,383.000
     35.00531481,31.70518497,383.000
     35.00523920,31.70515903,384.000
     35.00515169,31.70513929,385.000
     35.00506234,31.70512010,385.000
     35.00497375,31.70510430,386.000
     35.00487526,31.70508758,386.000
     35.00477476,31.70507316,386.000
     35.00467191,31.70505862,387.000
     35.00457217,31.70504655,388.000
     35.00448248,31.70504814,389.000
     35.00439581,31.70507073,389.000
     35.00431920,31.70509290,390.000
     35.00424142,31.70510598,391.000
     35.00416573,31.70510757,390.000
     35.00410404,31.70509726,390.000
     35.00405316,31.70506184,389.000
     35.00403573,31.70499772,390.000
     35.00405626,31.70492409,391.000
     35.00407873,31.70485058,391.000
     35.00410169,31.70477883,392.000
     35.00413447,31.70470306,393.000
     35.00416674,31.70461962,393.000
     35.00418903,31.70453957,392.000
     35.00421577,31.70445663,393.000
     35.00425282,31.70437164,393.000
     35.00430169,31.70428970,394.000
     35.00436162,31.70421435,396.000
     35.00443554,31.70414004,396.000
     35.00451978,31.70408083,397.000
     35.00460578,31.70402823,398.000
     35.00469035,31.70396524,398.000
     35.00478339,31.70390011,399.000
     35.00487484,31.70383457,400.000
     35.00496469,31.70376081,400.000
     35.00504902,31.70369530,401.000
     35.00512177,31.70362812,401.000
     35.00518816,31.70356534,401.000
     35.00523593,31.70350847,402.000
     35.00526661,31.70345948,402.000
     35.00528631,31.70341736,402.000
     35.00530349,31.70337993,402.000
     35.00532545,31.70334850,402.000
     35.00535563,31.70330802,402.000
     35.00539670,31.70328094,401.000
     35.00544515,31.70325337,401.000
     35.00550281,31.70321917,400.000
     35.00554330,31.70317948,400.000
     35.00558395,31.70312546,400.000
     35.00561823,31.70305417,400.000
     35.00565712,31.70297965,401.000
     35.00569166,31.70289491,401.000
     35.00572334,31.70280523,401.000
     35.00574170,31.70270326,401.000
     35.00576248,31.70260431,401.000
     35.00576885,31.70251236,401.000
     35.00578067,31.70243429,402.000
     35.00578922,31.70235721,402.000
     35.00579593,31.70228345,402.000
     35.00576383,31.70222566,401.000
     35.00572108,31.70220244,402.000
     35.00567221,31.70217918,402.000
     35.00564933,31.70214536,402.000
     35.00563818,31.70209968,402.000
     35.00565109,31.70203761,402.000
     35.00568084,31.70199004,402.000
     35.00571328,31.70195128,402.000
     35.00576592,31.70191855,402.000
     35.00581428,31.70188292,404.000
     35.00585259,31.70183967,403.000
     35.00587354,31.70178787,403.000
     35.00589584,31.70172346,404.000
     35.00590883,31.70164555,403.000
     35.00591939,31.70157606,403.000
     35.00592769,31.70149065,403.000
     35.00592493,31.70139480,404.000
     35.00592375,31.70130034,404.000
     35.00593021,31.70120416,405.000
     35.00594613,31.70110215,406.000
     35.00595560,31.70099712,407.000
     35.00597228,31.70090450,408.000
     35.00597882,31.70082588,409.000
     35.00597589,31.70076352,412.000
     35.00595954,31.70071398,412.000
     35.00592283,31.70067673,412.000
     35.00587824,31.70064953,412.000
     35.00582526,31.70063909,413.000
     35.00576751,31.70063289,413.000
     35.00570658,31.70063343,415.000
     35.00564329,31.70066772,416.000
     35.00557523,31.70070657,416.000
     35.00552268,31.70075774,417.000
     35.00546870,31.70080853,418.000
     35.00543919,31.70087073,420.000
     35.00540039,31.70093728,420.000
     35.00535923,31.70100115,421.000
     35.00531279,31.70106682,423.000
     35.00526200,31.70113471,424.000
     35.00521037,31.70121673,425.000
     35.00514767,31.70130189,425.000
     35.00509109,31.70139103,425.000
     35.00503074,31.70146509,425.000
     35.00496629,31.70154610,424.000
     35.00490770,31.70162560,424.000
     35.00485271,31.70170259,424.000
     35.00478851,31.70178071,424.000
     35.00473738,31.70186373,424.000
     35.00467250,31.70195128,423.000
     35.00461056,31.70203749,423.000
     35.00454912,31.70212286,423.000
     35.00448877,31.70220056,423.000
     35.00443487,31.70226933,422.000
     35.00438131,31.70235017,422.000
     35.00431577,31.70242159,422.000
     35.00425634,31.70247917,421.000
     35.00417151,31.70253210,421.000
     35.00408309,31.70257556,421.000
     35.00398426,31.70260607,420.000
     35.00389131,31.70263767,420.000
     35.00379785,31.70265729,421.000
     35.00370565,31.70265976,422.000
     35.00359593,31.70264932,423.000
     35.00348001,31.70264061,423.000
     35.00334850,31.70262451,423.000
     35.00322302,31.70261119,423.000
     35.00309494,31.70260092,422.000
     35.00298648,31.70259367,422.000
     35.00287182,31.70257804,421.000
     35.00275514,31.70256215,421.000
     35.00264668,31.70254861,421.000
     35.00253503,31.70254375,421.000
     35.00243369,31.70253164,421.000
     35.00234024,31.70251169,420.000
     35.00224711,31.70249405,420.000
     35.00216070,31.70247640,420.000
     35.00207545,31.70246052,420.000
     35.00199029,31.70245809,420.000
     35.00191092,31.70245323,420.000
     35.00183623,31.70245226,420.000
     35.00175258,31.70246647,420.000
     35.00167429,31.70248378,420.000
     35.00159391,31.70251940,421.000
     35.00152518,31.70256810,421.000
     35.00145494,31.70261521,422.000
     35.00139995,31.70268859,423.000
     35.00135050,31.70276328,422.000
     35.00129602,31.70285099,422.000
     35.00124531,31.70294483,422.000
     35.00119351,31.70304365,423.000
     35.00113618,31.70313866,423.000
     35.00108169,31.70323388,422.000
     35.00103098,31.70332486,422.000
     35.00098061,31.70342796,422.000
     35.00093669,31.70352905,422.000
     35.00088363,31.70362581,421.000
     35.00083510,31.70372397,420.000
     35.00079285,31.70382254,420.000
     35.00075975,31.70391730,420.000
     35.00073343,31.70399705,421.000
     35.00071432,31.70406616,421.000
     35.00071348,31.70412261,421.000
     35.00072421,31.70417952,421.000
     35.00074768,31.70422546,421.000
     35.00076192,31.70426498,421.000
     35.00075991,31.70431321,421.000
     35.00074843,31.70435818,421.000
     35.00072069,31.70440437,420.000
     35.00068196,31.70444380,421.000
     35.00065229,31.70448425,421.000
     35.00064231,31.70452708,422.000
     35.00064525,31.70457628,422.000
     35.00065329,31.70462724,423.000
     35.00067375,31.70468235,423.000
     35.00069621,31.70474539,423.000
     35.00072253,31.70481248,423.000
     35.00075337,31.70487409,422.000
     35.00080920,31.70492895,421.000
     35.00089377,31.70496637,421.000
     35.00097474,31.70499538,421.000
     35.00106493,31.70502350,421.000
     35.00115990,31.70504680,421.000
     35.00125386,31.70506767,420.000
     35.00135511,31.70508670,420.000
     35.00146106,31.70508816,420.000
     35.00153817,31.70508121,420.000
     35.00160657,31.70505899,421.000
     35.00167044,31.70502601,421.000
     35.00171989,31.70499290,421.000
     35.00176348,31.70494986,421.000
     35.00178946,31.70489534,422.000
     35.00181830,31.70485653,422.000
     35.00185275,31.70483436,421.000
     35.00189541,31.70482485,421.000
     35.00194486,31.70483524,421.000
     35.00199557,31.70486386,421.000
     35.00202684,31.70489387,420.000
     35.00202667,31.70494035,420.000
     35.00199767,31.70498297,420.000
     35.00195215,31.70502438,420.000
     35.00189524,31.70503963,420.000
     35.00183565,31.70505053,419.000
     35.00178150,31.70505765,419.000
     35.00172081,31.70508469,418.000
     35.00166784,31.70511775,417.000
     35.00161227,31.70515526,417.000
     35.00153557,31.70519264,416.000
     35.00146726,31.70521494,416.000
     35.00139526,31.70523212,416.000
     35.00132552,31.70521968,416.000
     35.00125537,31.70520040,418.000
     35.00117331,31.70518363,418.000
     35.00107985,31.70516159,419.000
     35.00098136,31.70513024,419.000
     35.00090048,31.70508909,419.000
     35.00082378,31.70503397,418.000
     35.00075824,31.70497295,418.000
     35.00070241,31.70490829,418.000
     35.00066059,31.70483029,417.000
     35.00062597,31.70474974,416.000
     35.00059705,31.70466295,416.000
     35.00057610,31.70457989,415.000
     35.00057115,31.70450675,414.000
     35.00057618,31.70443467,414.000
     35.00057652,31.70436330,413.000
     35.00057057,31.70430144,414.000
     35.00055950,31.70424616,414.000
     35.00056855,31.70419176,415.000
     35.00057568,31.70413824,415.000
     35.00060225,31.70410530,415.000
     35.00063527,31.70407580,414.000
     35.00066059,31.70403959,414.000
     35.00069462,31.70400765,414.000
     35.00072136,31.70395690,414.000
     35.00075849,31.70389655,414.000
     35.00078715,31.70382715,414.000
     35.00081984,31.70374941,414.000
     35.00085086,31.70366689,414.000
     35.00088095,31.70358835,414.000
     35.00091758,31.70349900,414.000
     35.00096586,31.70340617,414.000
     35.00101212,31.70332050,414.000
     35.00106527,31.70323467,414.000
     35.00111531,31.70314930,415.000
     35.00116845,31.70306632,415.000
     35.00121480,31.70298192,415.000
     35.00125931,31.70289894,415.000
     35.00129736,31.70281763,415.000
     35.00134438,31.70274312,415.000
     35.00140037,31.70268029,415.000
     35.00145913,31.70261764,415.000
     35.00152191,31.70255364,415.000
     35.00157773,31.70247490,415.000
     35.00165200,31.70241907,414.000
     35.00172559,31.70237637,413.000
     35.00179986,31.70234112,413.000
     35.00186532,31.70229179,413.000
     35.00191829,31.70224540,413.000
     35.00196934,31.70219955,413.000
     35.00202684,31.70216242,413.000
     35.00208719,31.70213677,411.000
     35.00214670,31.70210173,410.000
     35.00222649,31.70205643,409.000
     35.00230931,31.70201263,409.000
     35.00239623,31.70197990,409.000
     35.00248524,31.70194755,409.000
     35.00258390,31.70191322,410.000
     35.00268155,31.70186826,409.000
     35.00278599,31.70182165,409.000
     35.00288975,31.70176273,410.000
     35.00298539,31.70169668,411.000
     35.00307600,31.70162744,411.000
     35.00315580,31.70155209,411.000
     35.00323081,31.70147338,412.000
     35.00330231,31.70138198,413.000
     35.00336836,31.70128701,414.000
     35.00342770,31.70120068,415.000
     35.00347733,31.70112461,415.000
     35.00352074,31.70107218,416.000
     35.00354472,31.70103908,416.000
     35.00356131,31.70101037,416.000
     35.00357950,31.70097965,416.000
     35.00359945,31.70094348,417.000
     35.00362946,31.70088979,417.000
     35.00367413,31.70083246,417.000
     35.00371294,31.70075803,418.000
     35.00377052,31.70067689,419.000
     35.00381344,31.70059085,420.000
     35.00385107,31.70050045,420.000
     35.00389533,31.70040285,420.000
     35.00394193,31.70028772,420.000
     35.00399256,31.70018408,419.000
     35.00404730,31.70008081,419.000
     35.00410245,31.69997219,419.000
     35.00415391,31.69986527,418.000
     35.00419373,31.69975602,419.000
     35.00423136,31.69965221,418.000
     35.00427034,31.69955032,417.000
     35.00430554,31.69944651,416.000
     35.00434175,31.69933692,416.000
     35.00437511,31.69923915,416.000
     35.00440034,31.69915072,416.000
     35.00441669,31.69906413,417.000
     35.00440956,31.69898090,417.000
     35.00439816,31.69889645,417.000
     35.00437436,31.69881699,417.000
     35.00433220,31.69874537,418.000
     35.00430571,31.69867320,417.000
     35.00429029,31.69861239,418.000
     35.00426757,31.69856306,417.000
     35.00423270,31.69851650,417.000
     35.00418476,31.69848410,417.000
     35.00412667,31.69845468,417.000
     35.00410111,31.69841935,416.000
     35.00408141,31.69839073,416.000
     35.00407093,31.69834899,416.000
     35.00408795,31.69829874,416.000
     35.00412181,31.69826462,416.000
     35.00416741,31.69824166,416.000
     35.00422516,31.69823525,416.000
     35.00427470,31.69823361,416.000
     35.00432616,31.69824455,415.000
     35.00437545,31.69823684,416.000
     35.00443085,31.69822188,416.000
     35.00449740,31.69819640,415.000
     35.00456622,31.69816589,415.000
     35.00463160,31.69812620,415.000
     35.00469572,31.69808089,415.000
     35.00475716,31.69803115,414.000
     35.00480804,31.69798069,414.000
     35.00486210,31.69793216,413.000
     35.00491482,31.69788354,412.000
     35.00496495,31.69784721,412.000
     35.00500283,31.69781246,412.000
     35.00501985,31.69776578,412.000
     35.00502295,31.69772697,412.000
     35.00501046,31.69767793,412.000
     35.00498858,31.69763854,412.000
     35.00496612,31.69759172,410.000
     35.00494885,31.69756117,410.000
     35.00493351,31.69754311,410.000
     35.00491650,31.69753146,409.000
     35.00491231,31.69752521,409.000
    </coordinates>
   </LineString>
  </Placemark>

 </Document>
</kml>
 