<?xml version="1.0" encoding="UTF-8"?>
<!-- Created with BasicAirData GPS Logger for Android - ver. 3.2.3 -->
<!-- Track 4 = 276 TrackPoints + 5 Placemarks -->
<kml xmlns="http://www.opengis.net/kml/2.2">
 <Document>
  <name>GPS Logger 20260410-141345</name>
  <description><![CDATA[Track 2
276 Trackpoints + 5 Placemarks]]></description>
  <Style id="TrackStyle">
   <LineStyle>
    <color>ff0000ff</color>
    <width>3</width>
   </LineStyle>
   <PolyStyle>
    <color>7f0000ff</color>
   </PolyStyle>
   <BalloonStyle>
    <text><![CDATA[<p style="color:red;font-weight:bold">$[name]</p><p style="font-size:11px">$[description]</p><p style="font-size:7px">Track Stats based on: Total time | Time in Movement</p>]]></text>
   </BalloonStyle>
  </Style>
  <Style id="PlacemarkStyle">
   <IconStyle>
    <Icon><href>http://maps.google.com/mapfiles/kml/shapes/placemark_circle_highlight.png</href></Icon>
   </IconStyle>
  </Style>

  <Placemark id="1">
   <name>Stop</name>
   <styleUrl>#PlacemarkStyle</styleUrl>
   <Point>
    <altitudeMode>clampToGround</altitudeMode>
    <coordinates>34.99557537,31.70879125,379.000</coordinates>
    <extrude>1</extrude>
   </Point>
  </Placemark>

  <Placemark id="2">
   <name>Stop</name>
   <styleUrl>#PlacemarkStyle</styleUrl>
   <Point>
    <altitudeMode>clampToGround</altitudeMode>
    <coordinates>34.99483701,31.71058129,396.000</coordinates>
    <extrude>1</extrude>
   </Point>
  </Placemark>

  <Placemark id="3">
   <name>Stop</name>
   <styleUrl>#PlacemarkStyle</styleUrl>
   <Point>
    <altitudeMode>clampToGround</altitudeMode>
    <coordinates>34.99781719,31.70950203,411.000</coordinates>
    <extrude>1</extrude>
   </Point>
  </Placemark>

  <Placemark id="4">
   <name>Stop no Passangers</name>
   <styleUrl>#PlacemarkStyle</styleUrl>
   <Point>
    <altitudeMode>clampToGround</altitudeMode>
    <coordinates>34.99785676,31.71074951,427.000</coordinates>
    <extrude>1</extrude>
   </Point>
  </Placemark>

  <Placemark id="5">
   <name>Stop</name>
   <styleUrl>#PlacemarkStyle</styleUrl>
   <Point>
    <altitudeMode>clampToGround</altitudeMode>
    <coordinates>34.99758971,31.71294624,420.000</coordinates>
    <extrude>1</extrude>
   </Point>
  </Placemark>

  <Placemark id="20260410-141345">
   <name>Track 20260410-141345</name>
   <description><![CDATA[<b>Track 2</b><br><br>Distance = 1.87 km<br>Duration = 04:35 | 04:15<br>Altitude Gap = 19 m<br>Max Speed = 56 km/h<br>Avg Speed = 24.5 | 26.5 km/h<br>Direction = NNW <br><br><i>276 Trackpoints</i>]]></description>
   <styleUrl>#TrackStyle</styleUrl>
   <LineString>
    <extrude>0</extrude>
    <tessellate>0</tessellate>
    <altitudeMode>clampToGround</altitudeMode>
    <coordinates>
     35.00017863,31.70731218,400.000
     35.00007612,31.70734189,399.000
     34.99996103,31.70737169,398.000
     34.99984008,31.70740450,397.000
     34.99971544,31.70745048,395.000
     34.99957798,31.70747914,395.000
     34.99943390,31.70750991,394.000
     34.99929425,31.70754079,393.000
     34.99915168,31.70758207,392.000
     34.99900633,31.70762143,391.000
     34.99885219,31.70766040,390.000
     34.99869972,31.70770185,389.000
     34.99854919,31.70774850,389.000
     34.99839513,31.70779359,388.000
     34.99823981,31.70783718,388.000
     34.99808910,31.70787770,386.000
     34.99794519,31.70791861,385.000
     34.99780328,31.70796140,384.000
     34.99765467,31.70800595,383.000
     34.99750916,31.70804681,383.000
     34.99736918,31.70808545,382.000
     34.99722560,31.70812392,382.000
     34.99708361,31.70816089,381.000
     34.99694891,31.70819575,381.000
     34.99681413,31.70822782,381.000
     34.99667843,31.70825946,380.000
     34.99654884,31.70828531,379.000
     34.99642387,31.70830853,379.000
     34.99629881,31.70833125,379.000
     34.99618188,31.70834814,379.000
     34.99606730,31.70836771,379.000
     34.99596220,31.70838037,379.000
     34.99586631,31.70839625,380.000
     34.99578592,31.70840668,380.000
     34.99572256,31.70842383,381.000
     34.99568023,31.70844998,381.000
     34.99564854,31.70848019,381.000
     34.99564041,31.70850211,381.000
     34.99564368,31.70851137,381.000
     34.99564276,31.70852034,382.000
     34.99563958,31.70853660,382.000
     34.99563220,31.70856393,382.000
     34.99561108,31.70860819,382.000
     34.99560152,31.70866187,382.000
     34.99558828,31.70871631,382.000
     34.99558669,31.70875860,381.000
     34.99557537,31.70879125,379.000
     34.99558669,31.70879883,379.000
     34.99559649,31.70878756,378.000
     34.99559691,31.70878701,378.000
     34.99559741,31.70878693,378.000
     34.99559741,31.70878693,378.000
     34.99559741,31.70878693,378.000
     34.99559741,31.70878693,378.000
     34.99559741,31.70878693,378.000
     34.99559490,31.70878856,378.000
     34.99558459,31.70879686,378.000
     34.99558409,31.70881543,378.000
     34.99558392,31.70883475,377.000
     34.99557235,31.70886086,377.000
     34.99555182,31.70889581,377.000
     34.99550697,31.70894174,377.000
     34.99545274,31.70897913,376.000
     34.99536901,31.70901978,376.000
     34.99528075,31.70904601,376.000
     34.99518620,31.70907275,376.000
     34.99508679,31.70909094,376.000
     34.99499660,31.70910590,376.000
     34.99491722,31.70912212,376.000
     34.99482997,31.70912589,376.000
     34.99475663,31.70914350,375.000
     34.99468429,31.70915615,375.000
     34.99460986,31.70916617,376.000
     34.99454624,31.70919396,377.000
     34.99447114,31.70923301,377.000
     34.99440928,31.70927941,378.000
     34.99435983,31.70932769,378.000
     34.99432739,31.70937203,379.000
     34.99429118,31.70942161,380.000
     34.99426561,31.70948296,381.000
     34.99422806,31.70954947,381.000
     34.99419848,31.70962462,382.000
     34.99417769,31.70970513,384.000
     34.99416763,31.70979091,386.000
     34.99416084,31.70987373,388.000
     34.99417551,31.70996077,390.000
     34.99419697,31.71004715,392.000
     34.99422622,31.71012053,392.000
     34.99426804,31.71018947,393.000
     34.99432244,31.71024492,394.000
     34.99437106,31.71030561,394.000
     34.99440559,31.71035091,394.000
     34.99444943,31.71037970,395.000
     34.99449679,31.71041591,395.000
     34.99454238,31.71045619,395.000
     34.99458932,31.71049558,395.000
     34.99463249,31.71051620,395.000
     34.99466870,31.71053074,395.000
     34.99469393,31.71054470,394.000
     34.99470868,31.71055140,394.000
     34.99471623,31.71054868,394.000
     34.99471304,31.71053892,394.000
     34.99472058,31.71053971,395.000
     34.99472880,31.71054529,395.000
     34.99475445,31.71055451,395.000
     34.99479317,31.71056498,395.000
     34.99483701,31.71058129,396.000
     34.99490574,31.71060010,396.000
     34.99497053,31.71062399,396.000
     34.99505209,31.71064159,397.000
     34.99512828,31.71066431,397.000
     34.99521067,31.71068962,397.000
     34.99529692,31.71071510,399.000
     34.99538158,31.71074691,399.000
     34.99545995,31.71076845,400.000
     34.99553279,31.71078786,400.000
     34.99560756,31.71081317,401.000
     34.99568014,31.71083098,401.000
     34.99573530,31.71084875,401.000
     34.99578106,31.71086560,401.000
     34.99581560,31.71087985,401.000
     34.99585038,31.71089485,401.000
     34.99589615,31.71090252,402.000
     34.99595792,31.71091086,402.000
     34.99603285,31.71092947,402.000
     34.99612522,31.71095361,402.000
     34.99622681,31.71098701,401.000
     34.99631901,31.71101920,402.000
     34.99640778,31.71105017,403.000
     34.99648858,31.71107058,404.000
     34.99655262,31.71108089,404.000
     34.99660467,31.71107678,404.000
     34.99665504,31.71105646,405.000
     34.99669586,31.71102578,405.000
     34.99671782,31.71097088,405.000
     34.99672855,31.71091065,405.000
     34.99675051,31.71084360,405.000
     34.99678010,31.71075940,404.000
     34.99681631,31.71067516,404.000
     34.99686610,31.71058300,405.000
     34.99691656,31.71048661,407.000
     34.99697163,31.71039030,408.000
     34.99702469,31.71029358,410.000
     34.99707875,31.71019530,411.000
     34.99712879,31.71010272,412.000
     34.99718453,31.71002196,412.000
     34.99724127,31.70994116,413.000
     34.99730598,31.70987788,414.000
     34.99736985,31.70980730,414.000
     34.99742609,31.70974741,414.000
     34.99748913,31.70970823,414.000
     34.99755207,31.70966837,414.000
     34.99760974,31.70962960,413.000
     34.99766506,31.70959981,413.000
     34.99770236,31.70957278,413.000
     34.99773354,31.70954755,413.000
     34.99776104,31.70952764,413.000
     34.99778761,31.70951238,412.000
     34.99780169,31.70950228,412.000
     34.99781099,31.70949948,412.000
     34.99781108,31.70950262,411.000
     34.99781719,31.70950203,411.000
     34.99783882,31.70948954,411.000
     34.99787671,31.70946712,410.000
     34.99794343,31.70944663,409.000
     34.99799405,31.70942639,410.000
     34.99802381,31.70940820,410.000
     34.99803102,31.70940577,410.000
     34.99803387,31.70940426,410.000
     34.99803026,31.70940183,410.000
     34.99802825,31.70940124,410.000
     34.99802850,31.70940128,410.000
     34.99802850,31.70940128,410.000
     34.99802850,31.70940128,410.000
     34.99802850,31.70940128,410.000
     34.99802850,31.70940128,410.000
     34.99803663,31.70939567,410.000
     34.99805164,31.70938305,410.000
     34.99808474,31.70936113,410.000
     34.99813881,31.70933620,410.000
     34.99820109,31.70931243,411.000
     34.99827367,31.70928536,411.000
     34.99835137,31.70925146,411.000
     34.99842924,31.70921835,412.000
     34.99849588,31.70918184,412.000
     34.99855028,31.70914731,413.000
     34.99859730,31.70911127,414.000
     34.99862127,31.70906969,414.000
     34.99864767,31.70902963,414.000
     34.99868824,31.70900239,414.000
     34.99874515,31.70899187,415.000
     34.99879427,31.70900000,414.000
     34.99883283,31.70901601,414.000
     34.99885730,31.70904539,414.000
     34.99887893,31.70908294,414.000
     34.99887968,31.70912736,414.000
     34.99886074,31.70917484,414.000
     34.99882478,31.70921696,414.000
     34.99880064,31.70926746,414.000
     34.99878698,31.70932421,413.000
     34.99877038,31.70939131,414.000
     34.99875505,31.70944960,413.000
     34.99872588,31.70950706,413.000
     34.99868405,31.70956875,413.000
     34.99862454,31.70962994,413.000
     34.99855463,31.70968073,413.000
     34.99847861,31.70972851,413.000
     34.99840225,31.70976263,413.000
     34.99833679,31.70980005,413.000
     34.99828122,31.70983731,414.000
     34.99822958,31.70987884,415.000
     34.99817753,31.70992846,417.000
     34.99813420,31.70999103,419.000
     34.99810955,31.71006295,420.000
     34.99810235,31.71013772,420.000
     34.99810872,31.71020397,420.000
     34.99812439,31.71026307,421.000
     34.99813931,31.71031097,421.000
     34.99816043,31.71035774,420.000
     34.99818625,31.71039785,421.000
     34.99820410,31.71042802,421.000
     34.99820377,31.71046168,421.000
     34.99817996,31.71047613,421.000
     34.99815322,31.71050635,422.000
     34.99810218,31.71053653,424.000
     34.99804426,31.71056482,424.000
     34.99798886,31.71060589,425.000
     34.99794317,31.71065459,425.000
     34.99788945,31.71070027,426.000
     34.99785676,31.71074951,427.000
     34.99781904,31.71079875,427.000
     34.99778501,31.71085676,427.000
     34.99776011,31.71092134,428.000
     34.99773782,31.71099581,428.000
     34.99772005,31.71108202,428.000
     34.99771133,31.71116827,428.000
     34.99770370,31.71125976,428.000
     34.99769247,31.71135531,428.000
     34.99768769,31.71145598,427.000
     34.99769507,31.71154805,428.000
     34.99770831,31.71163925,428.000
     34.99772592,31.71173770,428.000
     34.99776330,31.71182705,429.000
     34.99779414,31.71192855,428.000
     34.99783848,31.71202733,427.000
     34.99788819,31.71212096,427.000
     34.99792465,31.71222003,426.000
     34.99796488,31.71230901,425.000
     34.99799590,31.71239370,425.000
     34.99804460,31.71246332,424.000
     34.99809623,31.71253674,423.000
     34.99814166,31.71260501,423.000
     34.99817569,31.71266943,423.000
     34.99820352,31.71272831,423.000
     34.99822288,31.71280907,421.000
     34.99824668,31.71288266,421.000
     34.99825800,31.71295106,421.000
     34.99825154,31.71300713,421.000
     34.99823176,31.71304393,421.000
     34.99819363,31.71305935,421.000
     34.99815591,31.71306359,420.000
     34.99810712,31.71305453,420.000
     34.99805063,31.71304364,421.000
     34.99798307,31.71302147,421.000
     34.99792096,31.71301212,421.000
     34.99785114,31.71299473,421.000
     34.99777889,31.71297738,421.000
     34.99770513,31.71297042,420.000
     34.99764989,31.71296326,420.000
     34.99760396,31.71295404,420.000
     34.99758954,31.71295077,420.000
     34.99758971,31.71294624,420.000
     34.99758476,31.71294402,420.000
     34.99758778,31.71294498,420.000
     34.99759172,31.71295395,420.000
     34.99759482,31.71295533,419.000
    </coordinates>
   </LineString>
  </Placemark>

 </Document>
</kml>
 