<?xml version="1.0" encoding="UTF-8"?>
<!-- Created with BasicAirData GPS Logger for Android - ver. 3.2.3 -->
<!-- Track 1 = 705 TrackPoints + 12 Placemarks -->
<kml xmlns="http://www.opengis.net/kml/2.2">
 <Document>
  <name>GPS Logger 20260410-130100</name>
  <description><![CDATA[705 Trackpoints + 12 Placemarks]]></description>
  <Style id="TrackStyle">
   <LineStyle>
    <color>ff0000ff</color>
    <width>3</width>
   </LineStyle>
   <PolyStyle>
    <color>7f0000ff</color>
   </PolyStyle>
   <BalloonStyle>
    <text><![CDATA[<p style="color:red;font-weight:bold">$[name]</p><p style="font-size:11px">$[description]</p><p style="font-size:7px">Track Stats based on: Total time | Time in Movement</p>]]></text>
   </BalloonStyle>
  </Style>
  <Style id="PlacemarkStyle">
   <IconStyle>
    <Icon><href>http://maps.google.com/mapfiles/kml/shapes/placemark_circle_highlight.png</href></Icon>
   </IconStyle>
  </Style>

  <Placemark id="1">
   <name>Stop</name>
   <styleUrl>#PlacemarkStyle</styleUrl>
   <Point>
    <altitudeMode>clampToGround</altitudeMode>
    <coordinates>35.00278423,31.69818407,419.000</coordinates>
    <extrude>1</extrude>
   </Point>
  </Placemark>

  <Placemark id="2">
   <name>Stop no passangers</name>
   <styleUrl>#PlacemarkStyle</styleUrl>
   <Point>
    <altitudeMode>clampToGround</altitudeMode>
    <coordinates>35.00445700,31.69892424,421.000</coordinates>
    <extrude>1</extrude>
   </Point>
  </Placemark>

  <Placemark id="3">
   <name>Stop no passangers</name>
   <styleUrl>#PlacemarkStyle</styleUrl>
   <Point>
    <altitudeMode>clampToGround</altitudeMode>
    <coordinates>35.00334347,31.70144912,415.000</coordinates>
    <extrude>1</extrude>
   </Point>
  </Placemark>

  <Placemark id="4">
   <name>Stop</name>
   <styleUrl>#PlacemarkStyle</styleUrl>
   <Point>
    <altitudeMode>clampToGround</altitudeMode>
    <coordinates>35.00271943,31.70244338,418.000</coordinates>
    <extrude>1</extrude>
   </Point>
  </Placemark>

  <Placemark id="5">
   <name>Stop</name>
   <styleUrl>#PlacemarkStyle</styleUrl>
   <Point>
    <altitudeMode>clampToGround</altitudeMode>
    <coordinates>35.00611603,31.70108296,412.000</coordinates>
    <extrude>1</extrude>
   </Point>
  </Placemark>

  <Placemark id="6">
   <name>Stop no passangers</name>
   <styleUrl>#PlacemarkStyle</styleUrl>
   <Point>
    <altitudeMode>clampToGround</altitudeMode>
    <coordinates>35.00494190,31.70387568,405.000</coordinates>
    <extrude>1</extrude>
   </Point>
  </Placemark>

  <Placemark id="7">
   <name>Stop no passangers</name>
   <styleUrl>#PlacemarkStyle</styleUrl>
   <Point>
    <altitudeMode>clampToGround</altitudeMode>
    <coordinates>35.00343315,31.70531808,395.000</coordinates>
    <extrude>1</extrude>
   </Point>
  </Placemark>

  <Placemark id="8">
   <name>Stop</name>
   <styleUrl>#PlacemarkStyle</styleUrl>
   <Point>
    <altitudeMode>clampToGround</altitudeMode>
    <coordinates>35.00012842,31.70736314,400.000</coordinates>
    <extrude>1</extrude>
   </Point>
  </Placemark>

  <Placemark id="9">
   <name>Stop</name>
   <styleUrl>#PlacemarkStyle</styleUrl>
   <Point>
    <altitudeMode>clampToGround</altitudeMode>
    <coordinates>34.99501554,31.70852349,375.000</coordinates>
    <extrude>1</extrude>
   </Point>
  </Placemark>

  <Placemark id="10">
   <name>Stop</name>
   <styleUrl>#PlacemarkStyle</styleUrl>
   <Point>
    <altitudeMode>clampToGround</altitudeMode>
    <coordinates>34.99089265,31.70935162,365.000</coordinates>
    <extrude>1</extrude>
   </Point>
  </Placemark>

  <Placemark id="11">
   <name>Stop</name>
   <styleUrl>#PlacemarkStyle</styleUrl>
   <Point>
    <altitudeMode>clampToGround</altitudeMode>
    <coordinates>34.99050843,31.71180500,372.000</coordinates>
    <extrude>1</extrude>
   </Point>
  </Placemark>

  <Placemark id="12">
   <name>Stop</name>
   <styleUrl>#PlacemarkStyle</styleUrl>
   <Point>
    <altitudeMode>clampToGround</altitudeMode>
    <coordinates>34.98882995,31.71482215,371.000</coordinates>
    <extrude>1</extrude>
   </Point>
  </Placemark>

  <Placemark id="20260410-130100">
   <name>Track 20260410-130100</name>
   <description><![CDATA[Distance = 3.94 km<br>Duration = 11:44 | 10:08<br>Altitude Gap = -48 m<br>Max Speed = 58 km/h<br>Avg Speed = 20.1 | 23.3 km/h<br>Direction = NW <br><br><i>705 Trackpoints</i>]]></description>
   <styleUrl>#TrackStyle</styleUrl>
   <LineString>
    <extrude>0</extrude>
    <tessellate>0</tessellate>
    <altitudeMode>clampToGround</altitudeMode>
    <coordinates>
     35.00277216,31.69818324,419.000
     35.00278423,31.69818407,419.000
     35.00278314,31.69819346,418.000
     35.00279956,31.69819874,419.000
     35.00282572,31.69820356,418.000
     35.00286360,31.69820750,418.000
     35.00292739,31.69822502,416.000
     35.00299595,31.69823093,418.000
     35.00307458,31.69823784,418.000
     35.00316091,31.69825540,419.000
     35.00326753,31.69827058,421.000
     35.00336342,31.69829015,422.000
     35.00344363,31.69830729,423.000
     35.00351697,31.69832141,423.000
     35.00357883,31.69832904,424.000
     35.00364857,31.69833449,425.000
     35.00373188,31.69834199,424.000
     35.00381839,31.69834337,424.000
     35.00389332,31.69833612,423.000
     35.00395459,31.69833629,423.000
     35.00401075,31.69832891,422.000
     35.00407043,31.69830917,422.000
     35.00413120,31.69829396,422.000
     35.00417126,31.69826974,421.000
     35.00421301,31.69826588,420.000
     35.00425827,31.69825708,421.000
     35.00430395,31.69826337,422.000
     35.00434175,31.69828030,422.000
     35.00437511,31.69831089,422.000
     35.00438525,31.69836982,422.000
     35.00437578,31.69842941,421.000
     35.00436673,31.69847937,421.000
     35.00435684,31.69852639,421.000
     35.00435156,31.69858071,421.000
     35.00436195,31.69863779,421.000
     35.00438374,31.69870954,421.000
     35.00441275,31.69878229,420.000
     35.00443731,31.69885194,421.000
     35.00445700,31.69892424,421.000
     35.00447335,31.69900529,420.000
     35.00447913,31.69908840,419.000
     35.00447980,31.69917645,419.000
     35.00446178,31.69926693,418.000
     35.00443722,31.69935809,417.000
     35.00440411,31.69944584,417.000
     35.00436254,31.69955129,417.000
     35.00431342,31.69965413,417.000
     35.00426942,31.69975614,416.000
     35.00423446,31.69985065,416.000
     35.00419750,31.69994872,416.000
     35.00415903,31.70005391,416.000
     35.00411343,31.70015583,417.000
     35.00406716,31.70025181,417.000
     35.00402031,31.70034233,417.000
     35.00398175,31.70043763,418.000
     35.00393908,31.70052778,419.000
     35.00389097,31.70060447,419.000
     35.00385535,31.70067790,420.000
     35.00381151,31.70072987,420.000
     35.00378176,31.70078024,420.000
     35.00374546,31.70083146,420.000
     35.00371763,31.70089855,420.000
     35.00368386,31.70095354,420.000
     35.00365561,31.70099687,419.000
     35.00363625,31.70102235,418.000
     35.00362468,31.70104607,417.000
     35.00360423,31.70107428,417.000
     35.00358176,31.70110831,417.000
     35.00355167,31.70115676,416.000
     35.00351194,31.70121987,415.000
     35.00345645,31.70129133,415.000
     35.00340315,31.70136983,415.000
     35.00334347,31.70144912,415.000
     35.00328018,31.70151827,414.000
     35.00322025,31.70157535,413.000
     35.00317155,31.70162778,414.000
     35.00311464,31.70167706,415.000
     35.00305672,31.70172438,415.000
     35.00298849,31.70177258,414.000
     35.00291054,31.70182572,414.000
     35.00283292,31.70187555,415.000
     35.00273813,31.70192404,415.000
     35.00264710,31.70196846,415.000
     35.00255456,31.70200727,415.000
     35.00246940,31.70203899,416.000
     35.00239422,31.70207181,416.000
     35.00234024,31.70210085,417.000
     35.00228961,31.70213082,417.000
     35.00225583,31.70216845,417.000
     35.00224099,31.70221078,417.000
     35.00223714,31.70224758,417.000
     35.00223571,31.70226694,417.000
     35.00223890,31.70227251,417.000
     35.00224259,31.70226887,417.000
     35.00224711,31.70226841,417.000
     35.00225022,31.70227235,417.000
     35.00225139,31.70228760,417.000
     35.00225390,31.70230516,417.000
     35.00226111,31.70232473,417.000
     35.00227578,31.70235227,417.000
     35.00229078,31.70238592,417.000
     35.00231350,31.70240026,417.000
     35.00233965,31.70241572,417.000
     35.00237343,31.70242414,417.000
     35.00239874,31.70243303,417.000
     35.00242288,31.70244158,417.000
     35.00245063,31.70244392,417.000
     35.00246697,31.70244443,418.000
     35.00248860,31.70244673,418.000
     35.00251525,31.70245143,418.000
     35.00254299,31.70245608,418.000
     35.00257317,31.70245742,417.000
     35.00260578,31.70245700,417.000
     35.00265020,31.70244967,418.000
     35.00268918,31.70244657,418.000
     35.00272036,31.70244212,418.000
     35.00272354,31.70244493,418.000
     35.00271943,31.70244338,418.000
     35.00271910,31.70244342,418.000
     35.00271927,31.70244338,418.000
     35.00271943,31.70244338,418.000
     35.00271943,31.70244338,418.000
     35.00271943,31.70244338,418.000
     35.00273285,31.70244556,418.000
     35.00276176,31.70244941,418.000
     35.00278951,31.70245763,418.000
     35.00283779,31.70246505,419.000
     35.00291239,31.70247578,420.000
     35.00299419,31.70249007,421.000
     35.00307005,31.70250159,421.000
     35.00315194,31.70250859,421.000
     35.00323048,31.70251467,422.000
     35.00330022,31.70252079,422.000
     35.00336694,31.70253009,423.000
     35.00342712,31.70253613,423.000
     35.00347540,31.70254241,423.000
     35.00353189,31.70254115,424.000
     35.00359031,31.70253835,424.000
     35.00366298,31.70252716,424.000
     35.00371847,31.70252703,425.000
     35.00376591,31.70253030,425.000
     35.00380975,31.70252737,425.000
     35.00385602,31.70252724,425.000
     35.00390598,31.70251974,425.000
     35.00394797,31.70251433,425.000
     35.00398703,31.70250855,425.000
     35.00402835,31.70249912,424.000
     35.00405962,31.70248101,425.000
     35.00410270,31.70246249,425.000
     35.00413975,31.70244225,424.000
     35.00417403,31.70242171,425.000
     35.00421116,31.70239908,425.000
     35.00425131,31.70237171,425.000
     35.00428165,31.70235302,426.000
     35.00430772,31.70233651,426.000
     35.00433178,31.70231086,426.000
     35.00435734,31.70228710,426.000
     35.00438550,31.70225994,426.000
     35.00441493,31.70223061,426.000
     35.00443513,31.70220156,426.000
     35.00445977,31.70216376,425.000
     35.00448978,31.70213472,425.000
     35.00451123,31.70210324,425.000
     35.00454074,31.70208036,425.000
     35.00455817,31.70204708,425.000
     35.00458047,31.70200928,424.000
     35.00460637,31.70197295,424.000
     35.00462573,31.70193996,423.000
     35.00465247,31.70190266,423.000
     35.00467753,31.70187090,423.000
     35.00470368,31.70184135,423.000
     35.00472774,31.70180753,423.000
     35.00475473,31.70177237,422.000
     35.00478147,31.70173595,422.000
     35.00481382,31.70170569,422.000
     35.00483796,31.70167166,422.000
     35.00487115,31.70163444,422.000
     35.00490108,31.70158688,422.000
     35.00493075,31.70153725,422.000
     35.00494617,31.70150163,422.000
     35.00496075,31.70147678,423.000
     35.00497785,31.70144950,423.000
     35.00499906,31.70141949,423.000
     35.00502789,31.70138990,423.000
     35.00505505,31.70135348,423.000
     35.00507659,31.70131773,423.000
     35.00510241,31.70128789,422.000
     35.00512823,31.70125998,422.000
     35.00515471,31.70122746,423.000
     35.00517776,31.70119997,423.000
     35.00520106,31.70117226,423.000
     35.00522403,31.70114054,423.000
     35.00524599,31.70110877,423.000
     35.00526896,31.70108140,423.000
     35.00529427,31.70105089,423.000
     35.00531305,31.70102038,422.000
     35.00533341,31.70099436,421.000
     35.00535496,31.70097093,421.000
     35.00537340,31.70094206,421.000
     35.00539410,31.70090752,421.000
     35.00541874,31.70087789,421.000
     35.00543509,31.70085371,421.000
     35.00545177,31.70083276,420.000
     35.00546535,31.70080870,420.000
     35.00548203,31.70078259,420.000
     35.00550038,31.70075334,419.000
     35.00552192,31.70073163,419.000
     35.00553659,31.70071046,419.000
     35.00555662,31.70068926,419.000
     35.00558026,31.70067119,418.000
     35.00560767,31.70065045,418.000
     35.00563432,31.70063063,418.000
     35.00566031,31.70061131,417.000
     35.00568076,31.70059932,417.000
     35.00569384,31.70059232,416.000
     35.00570859,31.70058788,416.000
     35.00572619,31.70057975,416.000
     35.00575075,31.70056717,416.000
     35.00578780,31.70054676,417.000
     35.00582359,31.70050410,416.000
     35.00587304,31.70046885,416.000
     35.00592057,31.70043814,416.000
     35.00597295,31.70041890,416.000
     35.00601947,31.70041739,417.000
     35.00606323,31.70043265,418.000
     35.00610522,31.70045913,418.000
     35.00613674,31.70049480,417.000
     35.00614939,31.70053532,416.000
     35.00614990,31.70058880,416.000
     35.00613296,31.70063146,417.000
     35.00612626,31.70064827,417.000
     35.00612911,31.70065489,416.000
     35.00613045,31.70066466,416.000
     35.00612936,31.70068004,415.000
     35.00612341,31.70070267,415.000
     35.00612458,31.70073473,414.000
     35.00612089,31.70079018,413.000
     35.00611603,31.70086109,412.000
     35.00612299,31.70092110,412.000
     35.00612349,31.70098396,412.000
     35.00612567,31.70103103,412.000
     35.00610983,31.70106812,412.000
     35.00611176,31.70108685,412.000
     35.00611586,31.70108363,412.000
     35.00611603,31.70108296,412.000
     35.00611612,31.70108308,412.000
     35.00611637,31.70108308,412.000
     35.00611637,31.70108308,412.000
     35.00611637,31.70108308,412.000
     35.00611637,31.70108308,412.000
     35.00611637,31.70108308,412.000
     35.00611637,31.70108308,412.000
     35.00611637,31.70108308,412.000
     35.00611637,31.70108308,412.000
     35.00612022,31.70109033,412.000
     35.00611888,31.70110295,412.000
     35.00611679,31.70112302,412.000
     35.00611050,31.70114959,413.000
     35.00609734,31.70118480,413.000
     35.00607044,31.70123986,413.000
     35.00605225,31.70130482,413.000
     35.00603607,31.70137599,413.000
     35.00602241,31.70144799,413.000
     35.00601511,31.70151307,414.000
     35.00601252,31.70157154,414.000
     35.00600045,31.70163520,414.000
     35.00599198,31.70170183,414.000
     35.00599282,31.70176453,414.000
     35.00598536,31.70182190,414.000
     35.00597740,31.70187660,413.000
     35.00596885,31.70192613,413.000
     35.00596323,31.70196762,414.000
     35.00596482,31.70200522,414.000
     35.00596868,31.70203573,413.000
     35.00597522,31.70206200,414.000
     35.00597890,31.70209025,413.000
     35.00597983,31.70211179,414.000
     35.00598025,31.70212600,414.000
     35.00596985,31.70212512,414.000
     35.00596868,31.70212445,414.000
     35.00597555,31.70212260,414.000
     35.00597505,31.70212474,414.000
     35.00596834,31.70213476,414.000
     35.00595787,31.70214155,415.000
     35.00594789,31.70215596,416.000
     35.00594295,31.70218719,417.000
     35.00594135,31.70223656,417.000
     35.00593490,31.70230185,417.000
     35.00591763,31.70236371,418.000
     35.00588369,31.70243906,419.000
     35.00586499,31.70252640,420.000
     35.00585737,31.70262414,420.000
     35.00583222,31.70272560,420.000
     35.00581554,31.70282614,420.000
     35.00577900,31.70292852,420.000
     35.00574907,31.70302261,420.000
     35.00570440,31.70312202,419.000
     35.00567188,31.70319851,417.000
     35.00565059,31.70326179,415.000
     35.00562653,31.70330617,414.000
     35.00560407,31.70335629,413.000
     35.00559149,31.70341048,413.000
     35.00557607,31.70346413,412.000
     35.00556375,31.70350465,411.000
     35.00554229,31.70353709,410.000
     35.00550751,31.70356362,409.000
     35.00546023,31.70358868,409.000
     35.00539703,31.70359945,410.000
     35.00533006,31.70361295,409.000
     35.00526653,31.70364614,409.000
     35.00519780,31.70368503,409.000
     35.00512026,31.70374387,408.000
     35.00503317,31.70380628,407.000
     35.00494190,31.70387568,405.000
     35.00485338,31.70394810,403.000
     35.00475724,31.70401729,402.000
     35.00466504,31.70408883,401.000
     35.00458097,31.70416335,400.000
     35.00450830,31.70423690,399.000
     35.00444728,31.70431288,398.000
     35.00438777,31.70438928,397.000
     35.00433974,31.70446501,396.000
     35.00430856,31.70454091,396.000
     35.00429356,31.70460105,395.000
     35.00428886,31.70465444,395.000
     35.00429465,31.70468420,394.000
     35.00429490,31.70470637,394.000
     35.00429967,31.70472967,394.000
     35.00431979,31.70476668,394.000
     35.00434494,31.70482355,394.000
     35.00438735,31.70486604,394.000
     35.00441643,31.70491847,393.000
     35.00443161,31.70497182,393.000
     35.00442431,31.70502283,392.000
     35.00440076,31.70507471,392.000
     35.00435365,31.70510962,392.000
     35.00428534,31.70512521,391.000
     35.00420873,31.70512115,392.000
     35.00413070,31.70511612,392.000
     35.00403774,31.70512312,392.000
     35.00394529,31.70514193,393.000
     35.00385309,31.70517102,395.000
     35.00375628,31.70520346,395.000
     35.00365427,31.70523422,395.000
     35.00354715,31.70527680,394.000
     35.00343315,31.70531808,395.000
     35.00331765,31.70537344,394.000
     35.00321246,31.70543199,394.000
     35.00310794,31.70549326,395.000
     35.00299981,31.70556195,396.000
     35.00288900,31.70564057,396.000
     35.00277308,31.70572196,397.000
     35.00266110,31.70581244,398.000
     35.00254015,31.70589970,398.000
     35.00241157,31.70598725,398.000
     35.00228064,31.70607911,399.000
     35.00214678,31.70617295,399.000
     35.00201619,31.70626720,399.000
     35.00189482,31.70635953,401.000
     35.00177010,31.70644624,401.000
     35.00164890,31.70652600,402.000
     35.00152828,31.70660965,403.000
     35.00141580,31.70668890,403.000
     35.00131245,31.70676685,404.000
     35.00122259,31.70683122,404.000
     35.00114707,31.70689476,404.000
     35.00109452,31.70693717,404.000
     35.00104540,31.70697589,404.000
     35.00100592,31.70701076,404.000
     35.00096611,31.70705502,404.000
     35.00093023,31.70710250,404.000
     35.00088950,31.70714408,404.000
     35.00083057,31.70717396,404.000
     35.00075731,31.70720216,404.000
     35.00069135,31.70720778,404.000
     35.00060786,31.70721138,404.000
     35.00050929,31.70721947,404.000
     35.00041391,31.70723439,403.000
     35.00033386,31.70726620,403.000
     35.00025708,31.70729504,401.000
     35.00020495,31.70732986,400.000
     35.00015927,31.70735170,400.000
     35.00012842,31.70736314,400.000
     35.00010705,31.70736808,400.000
     35.00010277,31.70736687,400.000
     35.00011065,31.70736578,400.000
     35.00010755,31.70736498,400.000
     35.00010705,31.70736477,400.000
     35.00010897,31.70736419,400.000
     35.00010914,31.70736699,399.000
     35.00010914,31.70736699,399.000
     35.00010998,31.70737181,400.000
     35.00009992,31.70737919,400.000
     35.00007637,31.70738506,400.000
     35.00005449,31.70738858,400.000
     35.00002977,31.70739403,399.000
     34.99998257,31.70739822,399.000
     34.99992038,31.70740496,399.000
     34.99983849,31.70741427,397.000
     34.99973129,31.70743719,397.000
     34.99962349,31.70745936,396.000
     34.99950397,31.70749172,395.000
     34.99937899,31.70752692,394.000
     34.99924270,31.70756376,394.000
     34.99910700,31.70760571,393.000
     34.99897012,31.70764481,392.000
     34.99883174,31.70768211,391.000
     34.99869537,31.70771966,390.000
     34.99855807,31.70776107,389.000
     34.99841759,31.70779963,389.000
     34.99827677,31.70784112,388.000
     34.99813789,31.70788860,388.000
     34.99799640,31.70793369,387.000
     34.99785600,31.70797464,386.000
     34.99771644,31.70801412,386.000
     34.99757688,31.70805154,385.000
     34.99744361,31.70808528,385.000
     34.99730732,31.70811776,385.000
     34.99717489,31.70815221,384.000
     34.99703357,31.70818834,383.000
     34.99689577,31.70822333,382.000
     34.99675839,31.70825246,382.000
     34.99662470,31.70827861,381.000
     34.99650350,31.70830195,381.000
     34.99638272,31.70831976,380.000
     34.99626461,31.70833443,379.000
     34.99615188,31.70834939,379.000
     34.99605012,31.70836255,379.000
     34.99596152,31.70837022,379.000
     34.99588751,31.70838322,379.000
     34.99583269,31.70838942,379.000
     34.99578592,31.70840224,379.000
     34.99574779,31.70842031,379.000
     34.99570252,31.70844507,379.000
     34.99565860,31.70846955,379.000
     34.99561560,31.70849423,379.000
     34.99557160,31.70851259,379.000
     34.99551812,31.70851527,378.000
     34.99546808,31.70850538,377.000
     34.99540731,31.70849331,377.000
     34.99534344,31.70848174,377.000
     34.99527463,31.70847990,377.000
     34.99520623,31.70848761,378.000
     34.99513490,31.70850278,377.000
     34.99507983,31.70851209,376.000
     34.99503935,31.70851745,376.000
     34.99502267,31.70851976,375.000
     34.99501554,31.70852349,375.000
     34.99502284,31.70852772,374.000
     34.99502300,31.70852789,374.000
     34.99502300,31.70852780,374.000
     34.99502300,31.70852780,374.000
     34.99502300,31.70852780,374.000
     34.99502300,31.70852780,374.000
     34.99502300,31.70852780,374.000
     34.99502300,31.70852780,374.000
     34.99502149,31.70853053,374.000
     34.99500196,31.70853342,374.000
     34.99496525,31.70852956,374.000
     34.99490582,31.70852596,374.000
     34.99481874,31.70851582,375.000
     34.99471949,31.70849796,375.000
     34.99460642,31.70849264,375.000
     34.99449092,31.70849113,375.000
     34.99436008,31.70849046,375.000
     34.99420996,31.70849138,374.000
     34.99406260,31.70849268,373.000
     34.99391282,31.70849239,373.000
     34.99375884,31.70849377,372.000
     34.99359816,31.70849398,371.000
     34.99344486,31.70849704,370.000
     34.99329482,31.70849516,371.000
     34.99315124,31.70849365,371.000
     34.99300280,31.70848912,371.000
     34.99285938,31.70848807,371.000
     34.99272242,31.70848397,370.000
     34.99258119,31.70848371,369.000
     34.99244054,31.70848853,369.000
     34.99229453,31.70849742,369.000
     34.99215161,31.70851016,368.000
     34.99201491,31.70852437,367.000
     34.99187736,31.70854038,366.000
     34.99174249,31.70856544,366.000
     34.99161727,31.70859339,365.000
     34.99150721,31.70861250,365.000
     34.99140252,31.70863128,365.000
     34.99132826,31.70863870,365.000
     34.99126380,31.70865010,365.000
     34.99120337,31.70866967,366.000
     34.99115006,31.70869741,366.000
     34.99110086,31.70874238,366.000
     34.99104797,31.70880038,366.000
     34.99099122,31.70886321,366.000
     34.99094001,31.70891861,366.000
     34.99090439,31.70897862,366.000
     34.99088352,31.70904731,365.000
     34.99086600,31.70912589,364.000
     34.99085376,31.70919986,364.000
     34.99087019,31.70926642,365.000
     34.99088511,31.70931600,365.000
     34.99089550,31.70934231,365.000
     34.99089936,31.70935564,365.000
     34.99089592,31.70935715,365.000
     34.99089265,31.70935162,365.000
     34.99089140,31.70935086,365.000
     34.99089114,31.70935095,365.000
     34.99089114,31.70935095,365.000
     34.99089114,31.70935095,365.000
     34.99089114,31.70935095,365.000
     34.99089114,31.70935095,365.000
     34.99089114,31.70935095,365.000
     34.99089114,31.70935095,365.000
     34.99089114,31.70935095,365.000
     34.99089114,31.70935095,365.000
     34.99089114,31.70935095,365.000
     34.99089114,31.70935095,365.000
     34.99089114,31.70935095,365.000
     34.99089114,31.70935095,365.000
     34.99089114,31.70935095,365.000
     34.99089114,31.70935095,365.000
     34.99089257,31.70935669,364.000
     34.99088679,31.70937144,364.000
     34.99088352,31.70940388,364.000
     34.99088930,31.70945291,364.000
     34.99088318,31.70951100,364.000
     34.99087958,31.70956586,364.000
     34.99089148,31.70963933,365.000
     34.99089668,31.70971539,365.000
     34.99091252,31.70980030,365.000
     34.99093247,31.70988299,366.000
     34.99095141,31.70996911,365.000
     34.99097127,31.71004631,365.000
     34.99099256,31.71011936,365.000
     34.99101251,31.71020037,366.000
     34.99103489,31.71028251,366.000
     34.99106381,31.71036612,367.000
     34.99107320,31.71046369,367.000
     34.99108904,31.71056838,367.000
     34.99108988,31.71068275,368.000
     34.99108736,31.71078647,369.000
     34.99107060,31.71088945,369.000
     34.99105509,31.71096124,369.000
     34.99103808,31.71101840,370.000
     34.99102886,31.71105369,370.000
     34.99102391,31.71106610,370.000
     34.99102307,31.71106392,369.000
     34.99102257,31.71106433,369.000
     34.99102693,31.71106815,369.000
     34.99102299,31.71107381,370.000
     34.99102207,31.71108487,370.000
     34.99101704,31.71110339,370.000
     34.99100916,31.71112334,370.000
     34.99100271,31.71114011,371.000
     34.99099843,31.71115105,371.000
     34.99100011,31.71116052,371.000
     34.99099324,31.71118537,371.000
     34.99099583,31.71122724,370.000
     34.99100950,31.71126533,370.000
     34.99101025,31.71131122,370.000
     34.99100489,31.71135380,371.000
     34.99098351,31.71139374,371.000
     34.99094655,31.71142555,371.000
     34.99089357,31.71145933,372.000
     34.99082920,31.71149001,373.000
     34.99077346,31.71152308,373.000
     34.99073415,31.71156071,373.000
     34.99071596,31.71159277,373.000
     34.99069140,31.71162223,373.000
     34.99066181,31.71164797,373.000
     34.99063390,31.71168095,373.000
     34.99060012,31.71171045,373.000
     34.99057104,31.71173568,373.000
     34.99054614,31.71176527,373.000
     34.99052737,31.71178606,372.000
     34.99051211,31.71180555,372.000
     34.99050843,31.71180500,372.000
     34.99050784,31.71180534,372.000
     34.99050784,31.71180530,372.000
     34.99050784,31.71180521,372.000
     34.99050784,31.71180521,372.000
     34.99050784,31.71180521,372.000
     34.99050784,31.71180521,372.000
     34.99050784,31.71180521,372.000
     34.99050784,31.71180521,372.000
     34.99050784,31.71180521,372.000
     34.99050650,31.71180245,372.000
     34.99049602,31.71180802,373.000
     34.99047322,31.71182118,373.000
     34.99043223,31.71184394,374.000
     34.99036367,31.71188170,375.000
     34.99028547,31.71192310,375.000
     34.99020559,31.71198182,376.000
     34.99011875,31.71204146,377.000
     34.99002219,31.71210642,377.000
     34.98992681,31.71217037,377.000
     34.98984324,31.71223717,378.000
     34.98976001,31.71230268,378.000
     34.98969010,31.71237577,378.000
     34.98962975,31.71244760,377.000
     34.98957887,31.71250724,377.000
     34.98952640,31.71256185,377.000
     34.98948072,31.71260987,377.000
     34.98943487,31.71265799,377.000
     34.98938919,31.71270715,377.000
     34.98934720,31.71275832,377.000
     34.98931292,31.71281615,376.000
     34.98928257,31.71287633,375.000
     34.98924913,31.71293580,375.000
     34.98921761,31.71299301,376.000
     34.98918945,31.71303618,377.000
     34.98916824,31.71306162,376.000
     34.98916347,31.71307603,376.000
     34.98916271,31.71308240,375.000
     34.98916011,31.71308299,375.000
     34.98916003,31.71308324,375.000
     34.98915626,31.71308538,375.000
     34.98915022,31.71309753,375.000
     34.98913581,31.71312176,374.000
     34.98911996,31.71316052,374.000
     34.98910370,31.71321312,374.000
     34.98909432,31.71327401,375.000
     34.98909230,31.71333747,375.000
     34.98908308,31.71341139,374.000
     34.98907889,31.71348905,374.000
     34.98906523,31.71357010,373.000
     34.98906523,31.71364785,373.000
     34.98906850,31.71372689,372.000
     34.98906909,31.71380698,371.000
     34.98907688,31.71387567,370.000
     34.98907856,31.71394176,370.000
     34.98908442,31.71400290,370.000
     34.98909373,31.71405730,370.000
     34.98911058,31.71410994,370.000
     34.98912466,31.71415659,370.000
     34.98913916,31.71420109,370.000
     34.98915693,31.71423567,370.000
     34.98917218,31.71427641,370.000
     34.98917193,31.71430076,371.000
     34.98918886,31.71431798,372.000
     34.98919783,31.71433085,372.000
     34.98920487,31.71433826,371.000
     34.98920236,31.71433961,371.000
     34.98920236,31.71433961,371.000
     34.98920236,31.71433969,371.000
     34.98920236,31.71433969,371.000
     34.98920236,31.71433969,371.000
     34.98920236,31.71433969,371.000
     34.98920236,31.71433969,371.000
     34.98920856,31.71434619,371.000
     34.98921485,31.71435775,372.000
     34.98922172,31.71437062,372.000
     34.98922935,31.71438822,373.000
     34.98924695,31.71440410,373.000
     34.98925843,31.71442611,373.000
     34.98927461,31.71444719,373.000
     34.98930034,31.71446923,373.000
     34.98932281,31.71449258,372.000
     34.98933219,31.71450817,371.000
     34.98934259,31.71451676,371.000
     34.98935642,31.71452686,370.000
     34.98936723,31.71453889,370.000
     34.98937687,31.71455267,370.000
     34.98938047,31.71456361,370.000
     34.98938366,31.71456298,370.000
     34.98938500,31.71456701,370.000
     34.98938634,31.71456872,370.000
     34.98938693,31.71457149,371.000
     34.98938693,31.71457149,371.000
     34.98938693,31.71457149,371.000
     34.98938793,31.71458306,371.000
     34.98939782,31.71460079,371.000
     34.98940713,31.71461462,370.000
     34.98941375,31.71463218,370.000
     34.98941476,31.71465879,370.000
     34.98941157,31.71469169,370.000
     34.98938785,31.71471298,370.000
     34.98934887,31.71472287,370.000
     34.98930696,31.71472794,370.000
     34.98927905,31.71472823,370.000
     34.98926480,31.71472978,371.000
     34.98925340,31.71473020,371.000
     34.98924561,31.71473154,371.000
     34.98924485,31.71473150,371.000
     34.98924485,31.71473150,371.000
     34.98924485,31.71473150,371.000
     34.98924485,31.71473150,371.000
     34.98924485,31.71473150,371.000
     34.98924485,31.71473150,371.000
     34.98924485,31.71473150,371.000
     34.98924485,31.71473150,371.000
     34.98923723,31.71472656,371.000
     34.98921325,31.71472664,372.000
     34.98917017,31.71472383,372.000
     34.98909675,31.71471151,372.000
     34.98903455,31.71472174,372.000
     34.98897236,31.71476042,371.000
     34.98890857,31.71477911,371.000
     34.98887278,31.71480057,372.000
     34.98884571,31.71481763,371.000
     34.98883112,31.71482362,371.000
     34.98882995,31.71482215,371.000
     34.98882324,31.71481754,371.000
     34.98881444,31.71481419,371.000
     34.98880891,31.71480660,371.000
     34.98880497,31.71480526,371.000
    </coordinates>
   </LineString>
  </Placemark>

 </Document>
</kml>
 